GLOBALSTAR M079         
1 37188U 10054A   12354.48588117 -.00000086  00000-0  10000-3 0  6754
2 37188  52.0055 349.3730 0000444 153.2955 206.7935 12.62266894100927
GLOBALSTAR M074         
1 37189U 10054B   12354.92110276 -.00000102  00000-0  85320-5 0  6737
2 37189  52.0036 348.1701 0000596 137.0187 223.0725 12.62270571100978
GLOBALSTAR M076         
1 37190U 10054C   12354.38682830 -.00000086  00000-0  10000-3 0  6809
2 37190  52.0049 349.5039 0001219 182.9312 177.1544 12.62264607100910
GLOBALSTAR M077         
1 37191U 10054D   12354.31489556 -.00000086  00000-0  10000-3 0  4069
2 37191  52.0096 305.4045 0000780  81.6526 278.4424 12.62269283101654
GLOBALSTAR M075         
1 37192U 10054E   12354.18119110 -.00000086  00000-0  10000-3 0  6849
2 37192  51.9966  35.0446 0000837 110.4610 249.6343 12.62266056100124
GLOBALSTAR M073         
1 37193U 10054F   12355.20612407 -.00000108  00000-0 -24157-4 0  6802
2 37193  52.0079 302.2547 0000648  70.2189 289.8733 12.62266177101761
GLOBALSTAR M083         
1 37739U 11033A   12354.18370455 -.00000086  00000-0  10000-3 0  3886
2 37739  51.9879 260.2832 0000965  49.4766 310.6178 12.62265824 70965
GLOBALSTAR M088         
1 37740U 11033B   12354.93076441 -.00000086  00000-0  10000-3 0  4521
2 37740  51.9709 167.2637 0001959  93.8918 266.2173 12.62262769 66538
GLOBALSTAR M091         
1 37741U 11033C   12353.84963211 -.00000104  00000-0  00000+0 0  4550
2 37741  51.9979 126.0127 0001430 124.4294 235.6706 12.62263788 67150
GLOBALSTAR M085         
1 37742U 11033D   12354.47062492 -.00000086  00000-0  10000-3 0  4567
2 37742  51.9865  79.1967 0001011 130.6061 229.4879 12.62264784 67970
GLOBALSTAR M081         
1 37743U 11033E   12354.72823252 -.00000086  00000-0  10000-3 0  4598
2 37743  51.9958  78.3580 0001718 130.7165 229.3840 12.62268106 68044
GLOBALSTAR M089         
1 37744U 11033F   12355.17097189 -.00000086  00000-0  10000-3 0  4513
2 37744  51.9948  32.1188 0001309 158.6666 201.4247 12.62266219 68817
GLOBALSTAR M084         
1 38040U 11080A   12355.11437514 -.00000086  00000-0  10000-3 0  3136
2 38040  52.0026 257.2521 0001100  96.8327 263.2773 12.62266220 46811
GLOBALSTAR M080         
1 38041U 11080B   12355.15380778 -.00000086  00000-0  10000-3 0  3242
2 38041  52.0074 257.0434 0000651  91.9105 268.1830 12.62266063 46808
GLOBALSTAR M082         
1 38042U 11080C   12354.54731340 -.00000086  00000-0  10000-3 0  3295
2 38042  52.0077 213.9675 0001427  71.4802 288.6217 12.62269555 47467
GLOBALSTAR M092         
1 38043U 11080D   12354.35449452 -.00000086  00000-0  10000-3 0  3217
2 38043  52.0108 304.5649 0000882  67.2432 292.8526 12.62269039 45934
GLOBALSTAR M090         
1 38044U 11080E   12355.12142871 -.00000086  00000-0  10000-3 0  3196
2 38044  51.9875 211.8570 0001109  96.4036 263.6960 12.62262611 47528
GLOBALSTAR M086         
1 38045U 11080F   12355.08202508 -.00000086  00000-0  10000-3 0  3264
2 38045  51.9886 212.2864 0001236  84.7729 275.3277 12.62266864 47527
